{
  "norad_id": 64112,
  "name": "STARLINK-34136",
  "history": [
    {
      "epoch": "2026-03-28T21:34:30.987264Z",
      "apogee_km": 476.0769791318089,
      "perigee_km": 474.39927290096057,
      "latitude_deg": 5.1807433531349316e-05,
      "longitude_deg": 147.5846240445153,
      "height_km": 475.84801788741885,
      "semi_major_axis_km": 6853.3751260163845,
      "eccentricity": 0.0001224,
      "inclination_deg": 53.1602,
      "raan_deg": 297.5265,
      "arg_perigee_deg": 69.8939,
      "mean_anomaly_deg": 290.2194,
      "mean_motion_rev_day": 15.30192278
    }
  ]
}