{"fetched_at":"2026-03-29T16:36:15Z","count":15609,"tles":[{"name":"STARLINK-34136","line1":"1 64112U 25110S   26087.89896976  .00012122  00000+0  42083-3 0  9995","line2":"2 64112  53.1602 297.5265 0001224  69.8939 290.2194 15.30192278 48829","category":"Starlink"}]}